[Satellite]
VERSION=1.1
NAME=STARLINK-5158
NICKNAME=STARLINK-5158
TLE1=1 54055U 22136E   22321.58334491  .00001856  00000+0  40619-4 0  9993
TLE2=2 54055  53.2157  10.6086 0002014  35.3341  86.7461 15.49911943  1303
STATUS=0
